{
  "links" : {
    "next" : "https://api.nasa.gov/neo/rest/v1/feed?start_date=2011-04-23&end_date=2011-04-23&detailed=true&api_key=t0TVs3DtDT2H8Oy2Zy8m2eVrNsAVKAexjcZXUckd",
    "prev" : "https://api.nasa.gov/neo/rest/v1/feed?start_date=2011-04-21&end_date=2011-04-21&detailed=true&api_key=t0TVs3DtDT2H8Oy2Zy8m2eVrNsAVKAexjcZXUckd",
    "self" : "https://api.nasa.gov/neo/rest/v1/feed?start_date=2011-04-22&end_date=2011-04-22&detailed=true&api_key=t0TVs3DtDT2H8Oy2Zy8m2eVrNsAVKAexjcZXUckd"
  },
  "element_count" : 9,
  "near_earth_objects" : {
    "2011-04-22" : [ {
      "links" : {
        "self" : "https://api.nasa.gov/neo/rest/v1/neo/3634348?api_key=t0TVs3DtDT2H8Oy2Zy8m2eVrNsAVKAexjcZXUckd"
      },
      "neo_reference_id" : "3634348",
      "name" : "(2013 GD34)",
      "nasa_jpl_url" : "http://ssd.jpl.nasa.gov/sbdb.cgi?sstr=3634348",
      "absolute_magnitude_h" : 22.1,
      "estimated_diameter" : {
        "kilometers" : {
          "estimated_diameter_min" : 0.1010543415,
          "estimated_diameter_max" : 0.2259643771
        },
        "meters" : {
          "estimated_diameter_min" : 101.054341542,
          "estimated_diameter_max" : 225.9643771094
        },
        "miles" : {
          "estimated_diameter_min" : 0.0627922373,
          "estimated_diameter_max" : 0.140407711
        },
        "feet" : {
          "estimated_diameter_min" : 331.5431259047,
          "estimated_diameter_max" : 741.3529669956
        }
      },
      "is_potentially_hazardous_asteroid" : false,
      "close_approach_data" : [ {
        "close_approach_date" : "2011-04-22",
        "epoch_date_close_approach" : 1303455600000,
        "relative_velocity" : {
          "kilometers_per_second" : "2.423692942",
          "kilometers_per_hour" : "8725.294591254",
          "miles_per_hour" : "5421.5587419933"
        },
        "miss_distance" : {
          "astronomical" : "0.3564949004",
          "lunar" : "138.6765136719",
          "kilometers" : "53330880",
          "miles" : "33138272"
        },
        "orbiting_body" : "Earth"
      } ],
      "orbital_data" : {
        "orbit_id" : "10",
        "orbit_determination_date" : "2017-04-06 08:46:14",
        "orbit_uncertainty" : "3",
        "minimum_orbit_intersection" : ".235642",
        "jupiter_tisserand_invariant" : "4.292",
        "epoch_osculation" : "2458000.5",
        "eccentricity" : ".252382091187341",
        "semi_major_axis" : "1.617750772070085",
        "inclination" : "4.574807876353494",
        "ascending_node_longitude" : "260.2986697262546",
        "orbital_period" : "751.5637946525313",
        "perihelion_distance" : "1.209459449195102",
        "perihelion_argument" : "263.3584412195564",
        "aphelion_distance" : "2.026042094945069",
        "perihelion_time" : "2457857.367606722437",
        "mean_anomaly" : "68.56059584901291",
        "mean_motion" : ".4790012538675282",
        "equinox" : "J2000"
      }
    }, {
      "links" : {
        "self" : "https://api.nasa.gov/neo/rest/v1/neo/3652856?api_key=t0TVs3DtDT2H8Oy2Zy8m2eVrNsAVKAexjcZXUckd"
      },
      "neo_reference_id" : "3652856",
      "name" : "(2013 UX)",
      "nasa_jpl_url" : "http://ssd.jpl.nasa.gov/sbdb.cgi?sstr=3652856",
      "absolute_magnitude_h" : 22.0,
      "estimated_diameter" : {
        "kilometers" : {
          "estimated_diameter_min" : 0.1058168859,
          "estimated_diameter_max" : 0.2366137501
        },
        "meters" : {
          "estimated_diameter_min" : 105.8168859331,
          "estimated_diameter_max" : 236.6137501138
        },
        "miles" : {
          "estimated_diameter_min" : 0.0657515442,
          "estimated_diameter_max" : 0.1470249225
        },
        "feet" : {
          "estimated_diameter_min" : 347.1682720448,
          "estimated_diameter_max" : 776.2918559233
        }
      },
      "is_potentially_hazardous_asteroid" : false,
      "close_approach_data" : [ {
        "close_approach_date" : "2011-04-22",
        "epoch_date_close_approach" : 1303455600000,
        "relative_velocity" : {
          "kilometers_per_second" : "29.7438064126",
          "kilometers_per_hour" : "107077.7030855195",
          "miles_per_hour" : "66533.920564444"
        },
        "miss_distance" : {
          "astronomical" : "0.4827270168",
          "lunar" : "187.7808074951",
          "kilometers" : "72214936",
          "miles" : "44872280"
        },
        "orbiting_body" : "Earth"
      } ],
      "orbital_data" : {
        "orbit_id" : "13",
        "orbit_determination_date" : "2017-04-06 08:44:07",
        "orbit_uncertainty" : "7",
        "minimum_orbit_intersection" : ".0356267",
        "jupiter_tisserand_invariant" : "4.005",
        "epoch_osculation" : "2458000.5",
        "eccentricity" : ".5600507631296451",
        "semi_major_axis" : "1.698969273921552",
        "inclination" : "5.446649544937266",
        "ascending_node_longitude" : "259.4736796713651",
        "orbital_period" : "808.8662482218415",
        "perihelion_distance" : ".7474602355279679",
        "perihelion_argument" : "51.80848889707399",
        "aphelion_distance" : "2.650478312315137",
        "perihelion_time" : "2458146.836972685044",
        "mean_anomaly" : "294.8701836892973",
        "mean_motion" : ".4450674024183855",
        "equinox" : "J2000"
      }
    }, {
      "links" : {
        "self" : "https://api.nasa.gov/neo/rest/v1/neo/3713990?api_key=t0TVs3DtDT2H8Oy2Zy8m2eVrNsAVKAexjcZXUckd"
      },
      "neo_reference_id" : "3713990",
      "name" : "(2015 FE35)",
      "nasa_jpl_url" : "http://ssd.jpl.nasa.gov/sbdb.cgi?sstr=3713990",
      "absolute_magnitude_h" : 19.4,
      "estimated_diameter" : {
        "kilometers" : {
          "estimated_diameter_min" : 0.3503926411,
          "estimated_diameter_max" : 0.7835017643
        },
        "meters" : {
          "estimated_diameter_min" : 350.3926411083,
          "estimated_diameter_max" : 783.5017643338
        },
        "miles" : {
          "estimated_diameter_min" : 0.2177238258,
          "estimated_diameter_max" : 0.4868452748
        },
        "feet" : {
          "estimated_diameter_min" : 1149.5821926537,
          "estimated_diameter_max" : 2570.543928497
        }
      },
      "is_potentially_hazardous_asteroid" : false,
      "close_approach_data" : [ {
        "close_approach_date" : "2011-04-22",
        "epoch_date_close_approach" : 1303455600000,
        "relative_velocity" : {
          "kilometers_per_second" : "27.6073111183",
          "kilometers_per_hour" : "99386.3200257907",
          "miles_per_hour" : "61754.7942404698"
        },
        "miss_distance" : {
          "astronomical" : "0.1474612899",
          "lunar" : "57.3624420166",
          "kilometers" : "22059896",
          "miles" : "13707384"
        },
        "orbiting_body" : "Earth"
      } ],
      "orbital_data" : {
        "orbit_id" : "27",
        "orbit_determination_date" : "2017-04-06 08:34:56",
        "orbit_uncertainty" : "4",
        "minimum_orbit_intersection" : ".0923552",
        "jupiter_tisserand_invariant" : "2.881",
        "epoch_osculation" : "2458000.5",
        "eccentricity" : ".7876225429734935",
        "semi_major_axis" : "2.562956634708063",
        "inclination" : "10.38751303752682",
        "ascending_node_longitude" : "250.218563172115",
        "orbital_period" : "1498.684838686236",
        "perihelion_distance" : ".5443142125485112",
        "perihelion_argument" : "57.21070997649446",
        "aphelion_distance" : "4.581599056867614",
        "perihelion_time" : "2458718.261852026661",
        "mean_anomaly" : "187.5859873540128",
        "mean_motion" : ".2402106104680288",
        "equinox" : "J2000"
      }
    } ]
  }
}